[{"OBJECT_NAME":"STARLINK-3743","OBJECT_ID":"2022-029AG","EPOCH":"2026-03-09T09:44:01.241952","MEAN_MOTION":15.08837415,"ECCENTRICITY":0.00013949,"INCLINATION":53.2172,"RA_OF_ASC_NODE":80.3961,"ARG_OF_PERICENTER":96.216,"MEAN_ANOMALY":263.8991,"EPHEMERIS_TYPE":0,"CLASSIFICATION_TYPE":"U","NORAD_CAT_ID":52118,"ELEMENT_SET_NO":999,"REV_AT_EPOCH":22074,"BSTAR":5.5759885e-5,"MEAN_MOTION_DOT":6.0e-6,"MEAN_MOTION_DDOT":0},{"OBJECT_NAME":"IRIDIUM 33 DEB","OBJECT_ID":"1997-051QE","EPOCH":"2026-03-07T09:35:18.798432","MEAN_MOTION":15.07266806,"ECCENTRICITY":0.0013423,"INCLINATION":86.3519,"RA_OF_ASC_NODE":312.8742,"ARG_OF_PERICENTER":171.2899,"MEAN_ANOMALY":188.8573,"EPHEMERIS_TYPE":0,"CLASSIFICATION_TYPE":"U","NORAD_CAT_ID":35484,"ELEMENT_SET_NO":999,"REV_AT_EPOCH":63287,"BSTAR":0.0040001,"MEAN_MOTION_DOT":0.00060878,"MEAN_MOTION_DDOT":0}]
